[{"OBJECT_NAME":"HULIANWANG DIGUI-111","OBJECT_ID":"2025-285G","EPOCH":"2026-03-09T17:43:53.390496","MEAN_MOTION":13.29330588,"ECCENTRICITY":1.134e-5,"INCLINATION":50.0116,"RA_OF_ASC_NODE":142.508,"ARG_OF_PERICENTER":311.0963,"MEAN_ANOMALY":48.99,"EPHEMERIS_TYPE":0,"CLASSIFICATION_TYPE":"U","NORAD_CAT_ID":66921,"ELEMENT_SET_NO":999,"REV_AT_EPOCH":1283,"BSTAR":0.00013324831,"MEAN_MOTION_DOT":-6.2e-7,"MEAN_MOTION_DDOT":0},{"OBJECT_NAME":"SCOUT A R\/B","OBJECT_ID":"1966-005B","EPOCH":"2026-03-09T19:53:50.409024","MEAN_MOTION":13.65056264,"ECCENTRICITY":0.0228929,"INCLINATION":90.1531,"RA_OF_ASC_NODE":351.1186,"ARG_OF_PERICENTER":118.766,"MEAN_ANOMALY":243.6705,"EPHEMERIS_TYPE":0,"CLASSIFICATION_TYPE":"U","NORAD_CAT_ID":1953,"ELEMENT_SET_NO":999,"REV_AT_EPOCH":98932,"BSTAR":0.00014825392,"MEAN_MOTION_DOT":1.55e-6,"MEAN_MOTION_DDOT":0}]
